      2.10          N: GNSS NAV DATA                        RINEX VERSION / TYPE
fic2rin                                 03/17/2019 00:19:29 PGM / RUN BY / DATE
                                                            END OF HEADER
32 19  3 16 10  0  0.0-1.786472275853e-04 1.853095454862e-11 0.000000000000e+00
    5.000000000000e+01 2.121875000000e+01 4.915204738007e-09 2.536514695744e+00
    1.067295670509e-06 2.721639815718e-03 7.376074790955e-06 5.153758262634e+03
    5.544000000000e+05-3.166496753693e-08 4.772827609256e-01-2.048909664154e-08
    9.571152534749e-01 2.361875000000e+02-2.586370054431e+00-8.100694569301e-09
    1.496490906282e-10 1.000000000000e+00 2.044000000000e+03 0.000000000000e+00
    2.400000000000e+00 0.000000000000e+00 4.656612873077e-10 5.000000000000e+01
    5.472000000000e+05 4.000000000000e+00
21 19  3 16 10  0  0.0-2.314904704690e-04 7.389644451905e-12 0.000000000000e+00
    1.010000000000e+02-8.409375000000e+01 4.769841540189e-09-2.123720454899e+00
   -3.958120942116e-06 2.478114166297e-02 4.703179001808e-06 5.153777200699e+03
    5.544000000000e+05 2.924352884293e-07-1.666285805755e+00 2.980232238770e-07
    9.472552046386e-01 2.712812500000e+02-1.463833166710e+00-8.025691445120e-09
    5.857386840816e-11 1.000000000000e+00 2.044000000000e+03 0.000000000000e+00
    3.400000000000e+00 0.000000000000e+00-1.024454832077e-08 1.010000000000e+02
    5.472000000000e+05 4.000000000000e+00
19 19  3 16 10  0  0.0-3.417129628360e-04 4.320099833421e-12 0.000000000000e+00
    8.000000000000e+01 4.115625000000e+01 4.137315192927e-09-1.694490108532e+00
    2.449378371239e-06 9.434977080673e-03 2.829357981682e-06 5.153625946045e+03
    5.544000000000e+05 1.657754182816e-07-2.557546353603e+00 1.750886440277e-07
    9.818513227344e-01 3.300000000000e+02 1.357888874939e+00-8.078193632047e-09
    2.767972440020e-10 1.000000000000e+00 2.044000000000e+03 0.000000000000e+00
    2.400000000000e+00 0.000000000000e+00-1.536682248116e-08 8.000000000000e+01
    5.472000000000e+05 4.000000000000e+00
31 19  3 16 10  0  0.0 5.181133747101e-05-2.614797267597e-12 0.000000000000e+00
    5.100000000000e+01 1.190625000000e+01 4.658408327120e-09-1.349815555247e+00
    5.159527063370e-07 9.225760120898e-03 7.888302206993e-06 5.153574048996e+03
    5.544000000000e+05 4.470348358154e-08 1.561220429315e+00-1.210719347000e-07
    9.602872504699e-01 2.285625000000e+02-4.656769607432e-03-8.059621429869e-09
   -4.003738200338e-10 1.000000000000e+00 2.044000000000e+03 0.000000000000e+00
    2.400000000000e+00 0.000000000000e+00-1.350417733192e-08 5.100000000000e+01
    5.472000000000e+05 4.000000000000e+00
18 19  3 16 10  0  0.0 3.530643880367e-05 3.524291969370e-12 0.000000000000e+00
    1.100000000000e+02-1.052812500000e+02 4.971992817744e-09-5.755191348306e-01
   -5.405396223068e-06 1.510018308181e-02 5.340203642845e-06 5.153723812103e+03
    5.544000000000e+05-1.192092895508e-07-1.657539142907e+00 1.490116119385e-07
    9.529383224604e-01 2.784062500000e+02 1.377838694638e+00-8.720363238132e-09
   -3.643008888800e-11 1.000000000000e+00 2.044000000000e+03 0.000000000000e+00
    2.400000000000e+00 0.000000000000e+00-6.053596735001e-09 1.100000000000e+02
    5.472000000000e+05 4.000000000000e+00
17 19  3 16 10  0  0.0 2.421066164970e-05 5.684341886081e-12 0.000000000000e+00
    5.700000000000e+01 4.121875000000e+01 4.071955327570e-09 1.778351404663e+00
    1.991167664528e-06 1.292040047701e-02 3.410503268242e-06 5.153708770752e+03
    5.544000000000e+05 1.303851604462e-08-2.603929226070e+00-2.663582563400e-07
    9.841036343350e-01 3.226875000000e+02-1.715736829977e+00-8.064978795882e-09
    2.696540893180e-10 1.000000000000e+00 2.044000000000e+03 0.000000000000e+00
    2.400000000000e+00 0.000000000000e+00-1.117587089539e-08 5.700000000000e+01
    5.472000000000e+05 4.000000000000e+00
12 19  3 16 10  0  0.0 2.596983686090e-04-3.296918293927e-12 0.000000000000e+00
    7.000000000000e+01 7.106250000000e+01 3.715154751108e-09-1.687361583760e+00
    3.738328814507e-06 7.562142098323e-03 8.933246135712e-06 5.153688175201e+03
    5.544000000000e+05 1.769512891769e-07 2.646337465686e+00-1.490116119385e-08
    9.837169587542e-01 2.195312500000e+02 1.047048746583e+00-7.640318249923e-09
   -8.821796034643e-11 1.000000000000e+00 2.044000000000e+03 0.000000000000e+00
    2.400000000000e+00 0.000000000000e+00-1.257285475731e-08 7.000000000000e+01
    5.472000000000e+05 4.000000000000e+00
29 19  3 16 10  0  0.0 2.481681294739e-04-8.867573342286e-12 0.000000000000e+00
    6.700000000000e+01 2.959375000000e+01 4.017310194238e-09 2.672650199294e+00
    1.572072505951e-06 7.941145449877e-04 3.464519977570e-06 5.153552734375e+03
    5.544000000000e+05 2.421438694000e-08-2.592905336664e+00 1.676380634308e-08
    9.855262841313e-01 3.255937500000e+02 1.452108584894e+00-8.051763959717e-09
    2.157232714544e-10 1.000000000000e+00 2.044000000000e+03 0.000000000000e+00
    2.400000000000e+00 0.000000000000e+00-1.024454832077e-08 6.700000000000e+01
    5.472000000000e+05 4.000000000000e+00
20 19  3 16 10  0  0.0 5.231425166130e-04 3.410605131648e-13 0.000000000000e+00
    7.300000000000e+01-5.818750000000e+01 5.155571893120e-09-6.684090200672e-01
   -3.119930624962e-06 4.367407993414e-03 1.074001193047e-05 5.153680728912e+03
    5.544000000000e+05-9.313225746155e-08-6.804732680544e-01-4.284083843231e-08
    9.303104073912e-01 1.570937500000e+02 2.307211495888e+00-8.315346367553e-09
    2.910835533698e-10 1.000000000000e+00 2.044000000000e+03 0.000000000000e+00
    2.400000000000e+00 0.000000000000e+00-8.381903171539e-09 7.300000000000e+01
    5.472000000000e+05 4.000000000000e+00
28 19  3 16 10  0  0.0 7.663648575544e-04 4.547473508865e-13 0.000000000000e+00
    5.300000000000e+01 9.621875000000e+01 3.540504619086e-09 2.664961417860e+00
    4.962086677551e-06 1.916697795969e-02 9.786337614059e-06 5.153707397461e+03
    5.544000000000e+05 1.881271600723e-07 2.669245147746e+00-2.421438694000e-08
    9.830286397058e-01 1.960312500000e+02-1.471022880956e+00-7.316376185007e-09
   -1.035757429169e-10 1.000000000000e+00 2.044000000000e+03 0.000000000000e+00
    2.400000000000e+00 0.000000000000e+00-1.117587089539e-08 5.300000000000e+01
    5.472000000000e+05 4.000000000000e+00
16 19  3 16 10  0  0.0-2.575991675258e-05-2.614797267597e-12 0.000000000000e+00
    1.170000000000e+02 9.996875000000e+01 3.659438144573e-09 2.676312322122e+00
    5.038455128670e-06 1.078064972535e-02 9.495764970779e-06 5.153549989700e+03
    5.544000000000e+05-3.166496753693e-08 2.665243892712e+00-1.359730958939e-07
    9.840925073801e-01 2.097187500000e+02 5.520453576021e-01-7.621388890010e-09
   -1.857220217820e-11 1.000000000000e+00 2.044000000000e+03 0.000000000000e+00
    6.850000000000e+00 0.000000000000e+00-1.071020960808e-08 1.170000000000e+02
    5.472000000000e+05 4.000000000000e+00
 4 19  3 16 10  0  0.0 1.344042830169e-04 7.048583938740e-12 0.000000000000e+00
    1.270000000000e+02 2.537500000000e+01 4.862702551080e-09-9.403048354936e-01
    1.231208443642e-06 3.431492950767e-04 7.141381502151e-06 5.153792541504e+03
    5.544000000000e+05-5.774199962616e-08 5.155633991250e-01-1.490116119385e-08
    9.601856756789e-01 2.383750000000e+02-1.710648046032e+00-8.116052351872e-09
    1.603638226540e-10 1.000000000000e+00 2.044000000000e+03 0.000000000000e+00
    2.400000000000e+00 6.300000000000e+01-8.847564458847e-09 8.950000000000e+02
    5.472300000000e+05 4.000000000000e+00
21 19  3 16  9 59 44.0-2.314923331141e-04 7.389644451905e-12 0.000000000000e+00
    1.000000000000e+00-8.409375000000e+01 4.769841540189e-09-2.126054107670e+00
   -3.958120942116e-06 2.478114340920e-02 4.703179001808e-06 5.153777206421e+03
    5.543840000000e+05 2.924352884293e-07-1.666285665315e+00 2.980232238770e-07
    9.472552061015e-01 2.712812500000e+02-1.463833172562e+00-8.025691445120e-09
    5.857386840816e-11 1.000000000000e+00 2.044000000000e+03 0.000000000000e+00
    2.400000000000e+00 0.000000000000e+00-1.024454832077e-08 1.000000000000e+00
    5.475900000000e+05 4.000000000000e+00
 1 19  3 16  9 59 44.0-1.818393357098e-04-7.503331289627e-12 0.000000000000e+00
    0.000000000000e+00-1.125312500000e+02 4.406254966777e-09-3.360478146089e-01
   -5.725771188736e-06 8.513151202351e-03 5.492940545082e-06 5.153659015656e+03
    5.543840000000e+05 6.705522537231e-08-1.603965024519e+00 1.192092895508e-07
    9.744254613260e-01 2.823750000000e+02 6.829077027155e-01-8.299988584983e-09
   -1.071473202588e-10 1.000000000000e+00 2.044000000000e+03 0.000000000000e+00
    2.400000000000e+00 0.000000000000e+00 5.587935447693e-09 0.000000000000e+00
    5.510400000000e+05 4.000000000000e+00
 1 19  3 16 11 59 44.0-1.818933524191e-04-7.503331289627e-12 0.000000000000e+00
    1.000000000000e+00-1.028750000000e+02 4.287678599024e-09 7.140704149847e-01
   -5.418434739113e-06 8.514577290043e-03 5.781650543213e-06 5.153661911011e+03
    5.615840000000e+05-4.656612873077e-08-1.604024288793e+00 1.192092895508e-07
    9.744246494065e-01 2.759062500000e+02 6.829774590383e-01-8.252486606335e-09
   -1.742929742877e-10 1.000000000000e+00 2.044000000000e+03 0.000000000000e+00
    2.400000000000e+00 0.000000000000e+00 5.587935447693e-09 1.000000000000e+00
    5.544000000000e+05 4.000000000000e+00
21 19  3 16 11 59 44.0-2.314392477274e-04 7.389644451905e-12 0.000000000000e+00
    2.000000000000e+00-7.534375000000e+01 4.980921761099e-09-1.075919467062e+00
   -3.617256879807e-06 2.478166308720e-02 5.504116415977e-06 5.153777801514e+03
    5.615840000000e+05-4.395842552185e-07-1.666346314973e+00 2.756714820862e-07
    9.472522246745e-01 2.732187500000e+02-1.463847008841e+00-8.781794368413e-09
    7.928901699153e-11 1.000000000000e+00 2.044000000000e+03 0.000000000000e+00
    2.400000000000e+00 0.000000000000e+00-1.024454832077e-08 2.000000000000e+00
    5.544000000000e+05 4.000000000000e+00
